CCSDS_OEM_VERS = 2.0
CREATION_DATE  = 2026-06-15T17:46:32.961
ORIGINATOR     = NASA/JSC/FOD/TOPO

META_START
OBJECT_NAME          = ISS
OBJECT_ID            = 1998-067-A
CENTER_NAME          = Earth
REF_FRAME            = EME2000
TIME_SYSTEM          = UTC
START_TIME           = 2026-06-15T12:00:00.000
USEABLE_START_TIME   = 2026-06-15T12:00:00.000
USEABLE_STOP_TIME    = 2026-06-30T12:00:00.000
STOP_TIME            = 2026-06-30T12:00:00.000
META_STOP

COMMENT Source: This file was produced by the TOPO office within FOD at JSC.
COMMENT Units are in kg and m^2
COMMENT MASS=482539.00
COMMENT DRAG_AREA=1525.09
COMMENT DRAG_COEFF=1.77
COMMENT SOLAR_RAD_AREA=0.00
COMMENT SOLAR_RAD_COEFF=0.00
COMMENT Orbits start at the ascending node epoch
COMMENT ISS first asc. node: EPOCH = 2026-06-15T12:17:49.497 $ ORBIT = 1149 $ LAN(DEG) = -139.87532
COMMENT ISS last asc. node : EPOCH = 2026-06-30T11:25:51.967 $ ORBIT = 1381 $ LAN(DEG) = 144.29614
COMMENT Begin sequence of events
COMMENT TRAJECTORY EVENT SUMMARY:
COMMENT 
COMMENT |       EVENT        |       TIG        | ORB |   DV    |   HA    |   HP    |
COMMENT |                    |       GMT        |     |   M/S   |   KM    |   KM    |
COMMENT |                    |                  |     |  (F/S)  |  (NM)   |  (NM)   |
COMMENT =============================================================================
COMMENT  SpX-34 Undock         167:16:04:57.000             0.0     424.6     412.8
COMMENT                                                    (0.0)   (229.3)   (222.9)
COMMENT 
COMMENT =============================================================================
COMMENT End sequence of events
2026-06-22T17:24:57.000 -3573.143849718580 -3431.340387084220 -4659.050153229950 2.57001373566678 -6.60326795213654 2.88928471985027
2026-06-22T17:28:57.000 -2834.388594085400 -4872.658047904290 -3804.811956344810 3.54899337823250 -5.33446208143435 4.18615252860550
2026-06-22T17:32:57.000 -1890.186808539320 -5960.747375966480 -2674.005335509850 4.27158160062655 -3.67743978109054 5.17987948635452
2026-06-22T17:36:57.000 -808.838178266265 -6616.277991439020 -1348.631395633680 4.68481192371794 -1.75171139529461 5.79750206174799
2026-06-22T17:40:57.000 331.255930967896 -6791.230117234300 74.960631140150 4.75803663498923 0.30291286936516 5.99322089363224
2026-06-22T17:44:57.000 1447.282017182170 -6472.565417093340 1493.078430005620 4.48540991773521 2.33650043731977 5.75208656786424
2026-06-22T17:48:57.000 2458.099913251840 -5683.327671371710 2802.328638607150 3.88667848577045 4.20029785716641 5.09157271245683
2026-06-22T17:52:57.000 3290.245100634950 -4480.944850681130 3907.285981868140 3.00560358998017 5.75833224660828 4.06012659525977
2026-06-22T17:56:57.000 3883.302080345890 -2952.929151041110 4727.497506813180 1.90645900853927 6.89739328083351 2.73324655235672
2026-06-22T18:00:57.000 4194.264855579140 -1210.400896204060 5203.311409338570 0.66913107280101 7.53511693373502 1.20767050028426
2026-06-22T18:04:57.000 4200.588662307880 620.036863067973 5300.126301611690 -0.61679304742310 7.62553270695681 -0.40586352245154
2026-06-22T18:08:57.000 3901.758429392720 2405.423331098770 5010.819472057080 -1.85838285501913 7.16188875540073 -1.99042230622101
2026-06-22T18:12:57.000 3319.335383612730 4015.957116419040 4356.278030391930 -2.96566033135138 6.17718423803985 -3.43088922541500
2026-06-22T18:16:57.000 2495.474825957200 5334.360338317770 3383.976148114970 -3.85802907838605 4.74220241816364 -4.62215243288878
2026-06-22T18:20:57.000 1489.959343013510 6264.437820287540 2164.645235242540 -4.47010696002679 2.96089167734977 -5.47673253083164
2026-06-22T18:24:57.000 375.919192895810 6738.236128586340 787.204910670468 -4.75679433521017 0.96323774846656 -5.93155005207887
2026-06-22T18:28:57.000 -765.511979502061 6721.191472853770 -647.745845229446 -4.69697813407050 -1.10424705713522 -5.95304803639214
2026-06-22T18:32:57.000 -1851.218685997250 6214.766280807720 -2035.411593252720 -4.29536922052815 -3.08984735813188 -5.54004976263345
2026-06-22T18:36:57.000 -2802.287406149600 5256.269741258270 -3274.619952645930 -3.58200366120453 -4.84847976014832 -4.72367460957384
2026-06-22T18:40:57.000 -3549.809458258030 3915.926153667500 -4275.293079649520 -2.60962544668847 -6.25263472094932 -3.56459895451229
2026-06-22T18:44:57.000 -4039.847939507950 2291.512165486640 -4964.980442390750 -1.44942896554345 -7.20158069176714 -2.14803103277006
2026-06-22T18:48:57.000 -4237.216302390180 501.063989574972 -5293.958494426090 -0.18547686771916 -7.62807139275010 -0.57694394615910
2026-06-22T18:52:57.000 -4127.850195545670 -1325.670185285230 -5238.616173863680 1.09128517326951 -7.50222783795820 1.03526913173582
2026-06-22T18:56:57.000 -3719.720647683080 -3056.455263802050 -4803.039926283640 2.28921575575527 -6.83329269249737 2.57252448318409
2026-06-22T19:00:57.000 -3042.258070392640 -4565.919580724410 -4018.706540792950 3.32213385552188 -5.66891408725891 3.92392960343284
2026-06-22T19:04:57.000 -2144.329248817130 -5744.473222032290 -2942.325717101900 4.11520436495223 -4.09229683737633 4.99135256102686
2026-06-22T19:08:57.000 -1090.846049613720 -6506.261097524020 -1651.901607659000 4.61041304564830 -2.21692509473456 5.69659091474205
2026-06-22T19:12:57.000 41.840406499772 -6795.545238158930 -241.197144133086 4.77109209982332 -0.17882943874495 5.98741651400722
2026-06-22T19:16:57.000 1171.473401070590 -6590.970969193580 1187.070769691520 4.58507087221014 1.87332814871546 5.84198060960284
2026-06-22T19:20:57.000 2215.942211060970 -5907.246087775700 2528.796063780490 4.06572212762213 3.78959393908089 5.27063608729196
2026-06-22T19:24:57.000 3099.328341595690 -4794.088361958350 3686.173855747450 3.25095696007874 5.43002508908523 4.31520892780545
2026-06-22T19:28:57.000 3757.487673383710 -3332.526556192240 4574.910657139820 2.20032572472723 6.67529520118353 3.04571468326920
2026-06-22T19:32:57.000 4142.693982254950 -1628.860622627470 5130.356681239130 0.99019348970218 7.43532326609660 1.55475102184903
2026-06-22T19:36:57.000 4227.018653722520 193.114081045588 5312.119228673460 -0.29179575480462 7.65522779977823 -0.04934639462208
2026-06-22T19:40:57.000 4004.303466952300 2001.052436447460 5106.925265384660 -1.55294251088436 7.31902090884966 -1.65026719852005
2026-06-22T19:44:57.000 3490.595597649780 3663.560043972970 4529.558750272480 -2.70197559407860 6.45055391885434 -3.13186033294519
2026-06-22T19:48:57.000 2723.047233704950 5059.626769446700 3621.860316221910 -3.65532546225538 5.11210119203212 -4.38614193927914
2026-06-22T19:52:57.000 1757.324439566000 6087.437154550800 2449.815575524180 -4.34325242031139 3.40044966914521 -5.32113277305276
2026-06-22T19:56:57.000 663.632077253116 6671.915506341230 1098.854213763200 -4.71513730636558 1.44034390585952 -5.86786604804084
2026-06-22T20:00:57.000 -478.398631859220 6770.392692080490 -332.384687867126 -4.74359530221857 -0.62461095122759 -5.98598111854203
2026-06-22T20:04:57.000 -1585.600189883460 6375.847844629360 -1739.364968287810 -4.42674762675169 -2.64287558556928 -5.66704576858603
2026-06-22T20:08:57.000 -2577.451509432960 5517.405133098130 -3019.452931796780 -3.78836918583275 -4.46674759734875 -4.93521240468363
2026-06-22T20:12:57.000 -3382.030732263400 4258.027215089390 -4079.529510558500 -2.87581485467138 -5.96373046433451 -3.84502770803842
2026-06-22T20:16:57.000 -3941.224550171240 2689.662757754890 -4842.768826854130 -1.75601429072155 -7.02618620489369 -2.47677486877462
2026-06-22T20:20:57.000 -4214.819350749470 926.366690528945 -5254.081127757330 -0.51026932910711 -7.57852499883501 -0.93017137248230
2026-06-22T20:24:57.000 -4183.253745805440 -904.012936742506 -5283.914824868170 0.77164968903068 -7.58196136292287 0.68299026141771
2026-06-22T20:28:57.000 -3848.906797156890 -2668.964345152360 -4930.219452000860 1.99770810012348 -7.03656860787706 2.24659084580787
2026-06-22T20:32:57.000 -3235.900098018840 -4240.672816429650 -4218.565363979120 3.07977265834978 -5.98123289904889 3.64789340665174
2026-06-22T20:36:57.000 -2388.435888367490 -5505.099856679240 -3200.387788748440 3.93960767053651 -4.49126052985792 4.78534506924014
2026-06-22T20:40:57.000 -1367.742610188730 -6370.204819155210 -1949.431749589810 4.51445127052085 -2.67370733981693 5.57573681316153
2026-06-22T20:44:57.000 -247.754641801928 -6772.764076322090 -556.547417436510 4.76190169028326 -0.66022209119875 5.96070359486407
2026-06-22T20:48:57.000 890.223573535536 -6683.161226105680 876.881241386733 4.66337655449770 1.40250255785907 5.91144033278823
2026-06-22T20:52:57.000 1963.472865826450 -6107.705046764220 2246.379476510180 4.22578179445280 3.36369789866313 5.43119608584251
2026-06-22T20:56:57.000 2893.971518347880 -5088.221284776600 3452.110664876620 3.48109851779316 5.08007097407354 4.55511837090194
2026-06-22T21:00:57.000 3614.139401308860 -3698.927016109060 4406.239936470990 2.48377078139857 6.42665304557994 3.34740340539710
2026-06-22T21:04:57.000 4071.745796371960 -2040.903408103710 5039.350771864910 1.30642031253677 7.30592782992261 1.89632848003576
2026-06-22T21:08:57.000 4233.626397709430 -234.640400490269 5305.416089829710 0.03435223402573 7.65449783361629 0.30731267626402
2026-06-22T21:12:57.000 4088.012440521040 1588.667207334270 5185.037963597320 -1.24048605101605 7.44705793881616 -1.30443048465103
2026-06-22T21:16:57.000 3645.367666171920 3296.529666798390 4686.845740834740 -2.42584885125717 6.69821190384524 -2.82193868967473
2026-06-22T21:20:57.000 2937.680971352220 4764.691987638430 3846.919782059420 -3.43567084035023 5.46159939747386 -4.13476988743255
2026-06-22T21:24:57.000 2016.237743659130 5886.133658093200 2726.276182461230 -4.19619168575759 3.82643832448754 -5.14682271607623
2026-06-22T21:28:57.000 947.985907221790 6578.956432452540 1406.549476154830 -4.65150250216900 1.91167394973082 -5.78350048276734
